{"type": "FeatureCollection", "features": [ {"type": "Feature", "properties": {"norad_id": 41790, "name": "SCATSAT 1", "group": "resource", "lat": 57.686912610406615, "lon": 18.598427388213427, "alt_km": 637.9338717941628, "timestamp": "2025-12-01T03:58:49.207927+00:00", "meta": {"OBJECT_NAME": "SCATSAT 1", "OBJECT_ID": "2016-059H", "EPOCH": "2025-11-30T17:58:15.820608", "MEAN_MOTION": 14.78868352, "ECCENTRICITY": 0.0055668, "INCLINATION": 98.1485, "RA_OF_ASC_NODE": 31.2692, "ARG_OF_PERICENTER": 166.0701, "MEAN_ANOMALY": 194.2061, "EPHEMERIS_TYPE": 0, "CLASSIFICATION_TYPE": "U", "NORAD_CAT_ID": 41790, "ELEMENT_SET_NO": 999, "REV_AT_EPOCH": 7225, "BSTAR": 0.00023811, "MEAN_MOTION_DOT": 1.743e-05, "MEAN_MOTION_DDOT": 0, "GROUP": "resource"}, "tle": {"line1": "1 41790U 16059H   25334.74879422  .00001743  00000+0  23811-3 0  9994", "line2": "2 41790  98.1485  31.2692 0055668 166.0701 194.2061 14.78868352 72253"}}, "geometry": {"type": "Point", "coordinates": [18.598427388213427, 57.686912610406615]}}, {"type": "Feature", "properties": {"norad_id": 41875, "name": "GOKTURK 1A", "group": "resource", "lat": 80.25059835080818, "lon": 104.12756794630887, "alt_km": 676.0317035707913, "timestamp": "2025-12-01T03:58:49.207939+00:00", "meta": {"OBJECT_NAME": "GOKTURK 1A", "OBJECT_ID": "2016-073A", "EPOCH": "2025-11-30T20:58:45.204384", "MEAN_MOTION": 14.62756219, "ECCENTRICITY": 0.000124, "INCLINATION": 98.1431, "RA_OF_ASC_NODE": 227.3974, "ARG_OF_PERICENTER": 81.9499, "MEAN_ANOMALY": 278.1844, "EPHEMERIS_TYPE": 0, "CLASSIFICATION_TYPE": "U", "NORAD_CAT_ID": 41875, "ELEMENT_SET_NO": 999, "REV_AT_EPOCH": 47983, "BSTAR": 0.0001194, "MEAN_MOTION_DOT": 5.62e-06, "MEAN_MOTION_DDOT": 0, "GROUP": "resource"}, "tle": {"line1": "1 41875U 16073A   25334.87413431  .00000562  00000+0  11940-3 0  9990", "line2": "2 41875  98.1431 227.3974 0001240  81.9499 278.1844 14.62756219479832"}}, "geometry": {"type": "Point", "coordinates": [104.12756794630887, 80.25059835080818]}}, {"type": "Feature", "properties": {"norad_id": 41877, "name": "RESOURCESAT-2A", "group": "resource", "lat": 55.880124770610685, "lon": 31.907521904245716, "alt_km": 814.7068853492428, "timestamp": "2025-12-01T03:58:49.207949+00:00", "meta": {"OBJECT_NAME": "RESOURCESAT-2A", "OBJECT_ID": "2016-074A", "EPOCH": "2025-11-28T14:54:12.096576", "MEAN_MOTION": 14.21611889, "ECCENTRICITY": 0.00012077, "INCLINATION": 98.7772, "RA_OF_ASC_NODE": 42.5581, "ARG_OF_PERICENTER": 322.6074, "MEAN_ANOMALY": 37.5019, "EPHEMERIS_TYPE": 0, "CLASSIFICATION_TYPE": "U", "NORAD_CAT_ID": 41877, "ELEMENT_SET_NO": 999, "REV_AT_EPOCH": 46580, "BSTAR": 9.2935006e-05, "MEAN_MOTION_DOT": 1.59e-06, "MEAN_MOTION_DDOT": 0, "GROUP": "resource"}, "tle": {"line1": "1 41877U 16074A   25332.62097334  .00000159  00000+0  92935-4 0  9990", "line2": "2 41877  98.7772  42.5581 0001207 322.6074  37.5019 14.21611889465807"}}, "geometry": {"type": "Point", "coordinates": [31.907521904245716, 55.880124770610685]}}, {"type": "Feature", "properties": {"norad_id": 41948, "name": "CARTOSAT-2D", "group": "resource", "lat": -37.79550908914386, "lon": 38.65564912653256, "alt_km": 515.7888889358537, "timestamp": "2025-12-01T03:58:49.207963+00:00", "meta": {"OBJECT_NAME": "CARTOSAT-2D", "OBJECT_ID": "2017-008A", "EPOCH": "2025-11-30T17:05:00.168000", "MEAN_MOTION": 15.1930335, "ECCENTRICITY": 0.0004586, "INCLINATION": 97.4407, "RA_OF_ASC_NODE": 32.391, "ARG_OF_PERICENTER": 207.8188, "MEAN_ANOMALY": 152.2801, "EPHEMERIS_TYPE": 0, "CLASSIFICATION_TYPE": "U", "NORAD_CAT_ID": 41948, "ELEMENT_SET_NO": 999, "REV_AT_EPOCH": 48744, "BSTAR": 3.7903e-07, "MEAN_MOTION_DOT": -5.9e-07, "MEAN_MOTION_DDOT": 0, "GROUP": "resource"}, "tle": {"line1": "1 41948U 17008A   25334.71180750 -.00000059  00000+0  37903-6 0  9990", "line2": "2 41948  97.4407  32.3910 0004586 207.8188 152.2801 15.19303350487440"}}, "geometry": {"type": "Point", "coordinates": [38.65564912653256, -37.79550908914386]}}, {"type": "Feature", "properties": {"norad_id": 42063, "name": "SENTINEL-2B", "group": "resource", "lat": 2.084327560421568, "lon": 47.455649342573516, "alt_km": 791.6370562570528, "timestamp": "2025-12-01T03:58:49.207973+00:00", "meta": {"OBJECT_NAME": "SENTINEL-2B", "OBJECT_ID": "2017-013A", "EPOCH": "2025-11-27T16:03:17.874432", "MEAN_MOTION": 14.30826294, "ECCENTRICITY": 0.00011314, "INCLINATION": 98.5643, "RA_OF_ASC_NODE": 44.3254, "ARG_OF_PERICENTER": 103.5348, "MEAN_ANOMALY": 256.5961, "EPHEMERIS_TYPE": 0, "CLASSIFICATION_TYPE": "U", "NORAD_CAT_ID": 42063, "ELEMENT_SET_NO": 999, "REV_AT_EPOCH": 45582, "BSTAR": 8.5446015e-05, "MEAN_MOTION_DOT": 1.8e-06, "MEAN_MOTION_DDOT": 0, "GROUP": "resource"}, "tle": {"line1": "1 42063U 17013A   25331.66895688  .00000180  00000+0  85446-4 0  9996", "line2": "2 42063  98.5643  44.3254 0001131 103.5348 256.5961 14.30826294455821"}}, "geometry": {"type": "Point", "coordinates": [47.455649342573516, 2.084327560421568]}}, {"type": "Feature", "properties": {"norad_id": 42767, "name": "CARTOSAT-2E", "group": "resource", "lat": -52.09640485907098, "lon": -156.7835657148062, "alt_km": 513.7180340631567, "timestamp": "2025-12-01T03:58:49.207985+00:00", "meta": {"OBJECT_NAME": "CARTOSAT-2E", "OBJECT_ID": "2017-036C", "EPOCH": "2025-11-30T20:38:11.242176", "MEAN_MOTION": 15.19310683, "ECCENTRICITY": 0.0002742, "INCLINATION": 97.4579, "RA_OF_ASC_NODE": 32.6004, "ARG_OF_PERICENTER": 284.3065, "MEAN_ANOMALY": 75.7865, "EPHEMERIS_TYPE": 0, "CLASSIFICATION_TYPE": "U", "NORAD_CAT_ID": 42767, "ELEMENT_SET_NO": 999, "REV_AT_EPOCH": 46803, "BSTAR": 0.000271, "MEAN_MOTION_DOT": 5.654e-05, "MEAN_MOTION_DDOT": 0, "GROUP": "resource"}, "tle": {"line1": "1 42767U 17036C   25334.85985234  .00005654  00000+0  27100-3 0  9996", "line2": "2 42767  97.4579  32.6004 0002742 284.3065  75.7865 15.19310683468033"}}, "geometry": {"type": "Point", "coordinates": [-156.7835657148062, -52.09640485907098]}}, {"type": "Feature", "properties": {"norad_id": 42920, "name": "FORMOSAT-5", "group": "resource", "lat": -63.13932173416573, "lon": -146.9256205337375, "alt_km": 729.5464295286292, "timestamp": "2025-12-01T03:58:49.207999+00:00", "meta": {"OBJECT_NAME": "FORMOSAT-5", "OBJECT_ID": "2017-049A", "EPOCH": "2025-11-30T18:34:55.104960", "MEAN_MOTION": 14.50993437, "ECCENTRICITY": 0.0010468, "INCLINATION": 98.2465, "RA_OF_ASC_NODE": 49.33, "ARG_OF_PERICENTER": 335.2234, "MEAN_ANOMALY": 24.8457, "EPHEMERIS_TYPE": 0, "CLASSIFICATION_TYPE": "U", "NORAD_CAT_ID": 42920, "ELEMENT_SET_NO": 999, "REV_AT_EPOCH": 43790, "BSTAR": 7.1719e-05, "MEAN_MOTION_DOT": 2.4e-06, "MEAN_MOTION_DDOT": 0, "GROUP": "resource"}, "tle": {"line1": "1 42920U 17049A   25334.77424890  .00000240  00000+0  71719-4 0  9990", "line2": "2 42920  98.2465  49.3300 0010468 335.2234  24.8457 14.50993437437901"}}, "geometry": {"type": "Point", "coordinates": [-146.9256205337375, -63.13932173416573]}}, {"type": "Feature", "properties": {"norad_id": 42969, "name": "SENTINEL-5P", "group": "resource", "lat": 30.018828087229885, "lon": 98.97463324816148, "alt_km": 825.1184873967159, "timestamp": "2025-12-01T03:58:49.208011+00:00", "meta": {"OBJECT_NAME": "SENTINEL-5P", "OBJECT_ID": "2017-064A", "EPOCH": "2025-11-30T20:30:42.566976", "MEAN_MOTION": 14.19512569, "ECCENTRICITY": 9.54e-05, "INCLINATION": 98.7766, "RA_OF_ASC_NODE": 273.5452, "ARG_OF_PERICENTER": 85.1804, "MEAN_ANOMALY": 274.9481, "EPHEMERIS_TYPE": 0, "CLASSIFICATION_TYPE": "U", "NORAD_CAT_ID": 42969, "ELEMENT_SET_NO": 999, "REV_AT_EPOCH": 42142, "BSTAR": 6.7312e-05, "MEAN_MOTION_DOT": 9.8e-07, "MEAN_MOTION_DDOT": 0, "GROUP": "resource"}, "tle": {"line1": "1 42969U 17064A   25334.85465934  .00000098  00000+0  67312-4 0  9998", "line2": "2 42969  98.7766 273.5452 0000954  85.1804 274.9481 14.19512569421428"}}, "geometry": {"type": "Point", "coordinates": [98.97463324816148, 30.018828087229885]}}, {"type": "Feature", "properties": {"norad_id": 42987, "name": "SKYSAT-C11", "group": "resource", "lat": -3.2760336850547276, "lon": 112.80481544363731, "alt_km": 430.1849954704994, "timestamp": "2025-12-01T03:58:49.208021+00:00", "meta": {"OBJECT_NAME": "SKYSAT-C11", "OBJECT_ID": "2017-068A", "EPOCH": "2025-11-30T20:13:52.043808", "MEAN_MOTION": 15.46706839, "ECCENTRICITY": 8.46e-05, "INCLINATION": 97.4131, "RA_OF_ASC_NODE": 112.0474, "ARG_OF_PERICENTER": 121.0616, "MEAN_ANOMALY": 239.0717, "EPHEMERIS_TYPE": 0, "CLASSIFICATION_TYPE": "U", "NORAD_CAT_ID": 42987, "ELEMENT_SET_NO": 999, "REV_AT_EPOCH": 45247, "BSTAR": 0.00043523, "MEAN_MOTION_DOT": 0.0002169, "MEAN_MOTION_DDOT": 0, "GROUP": "resource"}, "tle": {"line1": "1 42987U 17068A   25334.84296347  .00021690  00000+0  43523-3 0  9999", "line2": "2 42987  97.4131 112.0474 0000846 121.0616 239.0717 15.46706839452471"}}, "geometry": {"type": "Point", "coordinates": [112.80481544363731, -3.2760336850547276]}}, {"type": "Feature", "properties": {"norad_id": 42988, "name": "SKYSAT-C10", "group": "resource", "lat": -12.394427265422918, "lon": 107.62971649943051, "alt_km": 477.44036106562453, "timestamp": "2025-12-01T03:58:49.208033+00:00", "meta": {"OBJECT_NAME": "SKYSAT-C10", "OBJECT_ID": "2017-068B", "EPOCH": "2025-11-30T18:37:43.489056", "MEAN_MOTION": 15.31910936, "ECCENTRICITY": 0.0005406, "INCLINATION": 97.425, "RA_OF_ASC_NODE": 105.5969, "ARG_OF_PERICENTER": 128.006, "MEAN_ANOMALY": 232.1671, "EPHEMERIS_TYPE": 0, "CLASSIFICATION_TYPE": "U", "NORAD_CAT_ID": 42988, "ELEMENT_SET_NO": 999, "REV_AT_EPOCH": 45196, "BSTAR": 0.00041586, "MEAN_MOTION_DOT": 0.00012747, "MEAN_MOTION_DDOT": 0, "GROUP": "resource"}, "tle": {"line1": "1 42988U 17068B   25334.77619779  .00012747  00000+0  41586-3 0  9990", "line2": "2 42988  97.4250 105.5969 0005406 128.0060 232.1671 15.31910936451962"}}, "geometry": {"type": "Point", "coordinates": [107.62971649943051, -12.394427265422918]}}]}